{
  "type": "FeatureCollection",
  "features": [
    {
      "type": "Feature",
      "properties": {
        "norad_id": 66590,
        "name": "STARLINK-35429",
        "group": "last-30-days",
        "lat": -41.0495985040708,
        "lon": 39.952568871718086,
        "alt_km": 446.56073760482286,
        "timestamp": "2025-12-19T22:41:51.094815+00:00",
        "meta_object_name": "STARLINK-35429",
        "meta_object_id": "2025-270C",
        "meta_epoch": "2025-12-19T18:00:00.998784",
        "meta_mean_motion": 15.40675136,
        "meta_eccentricity": 0.0001523,
        "meta_inclination": 42.9999,
        "meta_ra_of_asc_node": 151.9343,
        "meta_arg_of_pericenter": 290.9246,
        "meta_mean_anomaly": 316.6549,
        "meta_ephemeris_type": 0,
        "meta_classification_type": "U",
        "meta_norad_cat_id": 66590,
        "meta_element_set_no": 999,
        "meta_rev_at_epoch": 563,
        "meta_bstar": 0.00063669,
        "meta_mean_motion_dot": 0.00026362,
        "meta_mean_motion_ddot": 0,
        "tle_line1": "1 66590U 25270C   25353.75001156  .00026362  00000+0  63669-3 0  9996",
        "tle_line2": "2 66590  42.9999 151.9343 0001523 290.9246 316.6549 15.40675136  5635"
      },
      "geometry": {
        "type": "Point",
        "coordinates": [
          39.952568871718086,
          -41.0495985040708
        ]
      }
    },
    {
      "type": "Feature",
      "properties": {
        "norad_id": 66591,
        "name": "STARLINK-36058",
        "group": "last-30-days",
        "lat": -17.629583292614164,
        "lon": 130.6734709230727,
        "alt_km": 432.35671537808867,
        "timestamp": "2025-12-19T22:41:51.094826+00:00",
        "meta_object_name": "STARLINK-36058",
        "meta_object_id": "2025-270D",
        "meta_epoch": "2025-12-19T18:00:00.998784",
        "meta_mean_motion": 15.46006282,
        "meta_eccentricity": 0.0001499,
        "meta_inclination": 42.9988,
        "meta_ra_of_asc_node": 151.7503,
        "meta_arg_of_pericenter": 263.9193,
        "meta_mean_anomaly": 59.4849,
        "meta_ephemeris_type": 0,
        "meta_classification_type": "U",
        "meta_norad_cat_id": 66591,
        "meta_element_set_no": 999,
        "meta_rev_at_epoch": 552,
        "meta_bstar": -0.046105,
        "meta_mean_motion_dot": -0.02049552,
        "meta_mean_motion_ddot": 0,
        "tle_line1": "1 66591U 25270D   25353.75001156 -.02049552  00000+0 -46105-1 0  9991",
        "tle_line2": "2 66591  42.9988 151.7503 0001499 263.9193  59.4849 15.46006282  5522"
      },
      "geometry": {
        "type": "Point",
        "coordinates": [
          130.6734709230727,
          -17.629583292614164
        ]
      }
    },
    {
      "type": "Feature",
      "properties": {
        "norad_id": 66592,
        "name": "STARLINK-36066",
        "group": "last-30-days",
        "lat": 37.106307767304834,
        "lon": -83.1414657136839,
        "alt_km": 438.76562270062277,
        "timestamp": "2025-12-19T22:41:51.094836+00:00",
        "meta_object_name": "STARLINK-36066",
        "meta_object_id": "2025-270E",
        "meta_epoch": "2025-12-19T03:31:08.236704",
        "meta_mean_motion": 15.40718174,
        "meta_eccentricity": 0.00012951,
        "meta_inclination": 42.9987,
        "meta_ra_of_asc_node": 155.7395,
        "meta_arg_of_pericenter": 272.062,
        "meta_mean_anomaly": 88.0088,
        "meta_ephemeris_type": 0,
        "meta_classification_type": "U",
        "meta_norad_cat_id": 66592,
        "meta_element_set_no": 999,
        "meta_rev_at_epoch": 523,
        "meta_bstar": 0.00069686524,
        "meta_mean_motion_dot": 0.00028934,
        "meta_mean_motion_ddot": 0,
        "tle_line1": "1 66592U 25270E   25353.14662311  .00028934  00000+0  69687-3 0  9990",
        "tle_line2": "2 66592  42.9987 155.7395 0001295 272.0620  88.0088 15.40718174  5230"
      },
      "geometry": {
        "type": "Point",
        "coordinates": [
          -83.1414657136839,
          37.106307767304834
        ]
      }
    },
    {
      "type": "Feature",
      "properties": {
        "norad_id": 66593,
        "name": "STARLINK-36031",
        "group": "last-30-days",
        "lat": -16.561293579925447,
        "lon": -10.463194591655,
        "alt_km": 445.3109769462508,
        "timestamp": "2025-12-19T22:41:51.094849+00:00",
        "meta_object_name": "STARLINK-36031",
        "meta_object_id": "2025-270F",
        "meta_epoch": "2025-12-19T18:00:00.998784",
        "meta_mean_motion": 15.40677681,
        "meta_eccentricity": 0.0001648,
        "meta_inclination": 42.9994,
        "meta_ra_of_asc_node": 152.0545,
        "meta_arg_of_pericenter": 271.7792,
        "meta_mean_anomaly": 286.0383,
        "meta_ephemeris_type": 0,
        "meta_classification_type": "U",
        "meta_norad_cat_id": 66593,
        "meta_element_set_no": 999,
        "meta_rev_at_epoch": 552,
        "meta_bstar": 0.00057774,
        "meta_mean_motion_dot": 0.00023888,
        "meta_mean_motion_ddot": 0,
        "tle_line1": "1 66593U 25270F   25353.75001156  .00023888  00000+0  57774-3 0  9999",
        "tle_line2": "2 66593  42.9994 152.0545 0001648 271.7792 286.0383 15.40677681  5521"
      },
      "geometry": {
        "type": "Point",
        "coordinates": [
          -10.463194591655,
          -16.561293579925447
        ]
      }
    },
    {
      "type": "Feature",
      "properties": {
        "norad_id": 66594,
        "name": "STARLINK-36032",
        "group": "last-30-days",
        "lat": -34.36530099837412,
        "lon": 103.47651228614036,
        "alt_km": 446.5884578231944,
        "timestamp": "2025-12-19T22:41:51.094859+00:00",
        "meta_object_name": "STARLINK-36032",
        "meta_object_id": "2025-270G",
        "meta_epoch": "2025-12-19T18:00:00.998784",
        "meta_mean_motion": 15.40619404,
        "meta_eccentricity": 0.0001388,
        "meta_inclination": 43,
        "meta_ra_of_asc_node": 151.8132,
        "meta_arg_of_pericenter": 253.1882,
        "meta_mean_anomaly": 44.1622,
        "meta_ephemeris_type": 0,
        "meta_classification_type": "U",
        "meta_norad_cat_id": 66594,
        "meta_element_set_no": 999,
        "meta_rev_at_epoch": 526,
        "meta_bstar": 0.0010133,
        "meta_mean_motion_dot": 0.00042146,
        "meta_mean_motion_ddot": 0,
        "tle_line1": "1 66594U 25270G   25353.75001156  .00042146  00000+0  10133-2 0  9995",
        "tle_line2": "2 66594  43.0000 151.8132 0001388 253.1882  44.1622 15.40619404  5265"
      },
      "geometry": {
        "type": "Point",
        "coordinates": [
          103.47651228614036,
          -34.36530099837412
        ]
      }
    },
    {
      "type": "Feature",
      "properties": {
        "norad_id": 66595,
        "name": "STARLINK-35711",
        "group": "last-30-days",
        "lat": -4.586881582407114,
        "lon": 145.6223337069209,
        "alt_km": 414.99079341236666,
        "timestamp": "2025-12-19T22:41:51.094869+00:00",
        "meta_object_name": "STARLINK-35711",
        "meta_object_id": "2025-270H",
        "meta_epoch": "2025-12-19T11:54:18.274176",
        "meta_mean_motion": 15.50601138,
        "meta_eccentricity": 0.0001396,
        "meta_inclination": 42.9989,
        "meta_ra_of_asc_node": 153.1927,
        "meta_arg_of_pericenter": 272.2206,
        "meta_mean_anomaly": 87.8494,
        "meta_ephemeris_type": 0,
        "meta_classification_type": "U",
        "meta_norad_cat_id": 66595,
        "meta_element_set_no": 999,
        "meta_rev_at_epoch": 550,
        "meta_bstar": 0.00087002,
        "meta_mean_motion_dot": 0.00051072,
        "meta_mean_motion_ddot": 0,
        "tle_line1": "1 66595U 25270H   25353.49604484  .00051072  00000+0  87002-3 0  9998",
        "tle_line2": "2 66595  42.9989 153.1927 0001396 272.2206  87.8494 15.50601138  5502"
      },
      "geometry": {
        "type": "Point",
        "coordinates": [
          145.6223337069209,
          -4.586881582407114
        ]
      }
    },
    {
      "type": "Feature",
      "properties": {
        "norad_id": 66596,
        "name": "STARLINK-35811",
        "group": "last-30-days",
        "lat": 42.918370833544635,
        "lon": -115.07949539538282,
        "alt_km": 438.39641858487084,
        "timestamp": "2025-12-19T22:41:51.094881+00:00",
        "meta_object_name": "STARLINK-35811",
        "meta_object_id": "2025-270J",
        "meta_epoch": "2025-12-19T17:37:46.137792",
        "meta_mean_motion": 15.40716596,
        "meta_eccentricity": 0.0001838,
        "meta_inclination": 42.9991,
        "meta_ra_of_asc_node": 152.4119,
        "meta_arg_of_pericenter": 270.0462,
        "meta_mean_anomaly": 90.0184,
        "meta_ephemeris_type": 0,
        "meta_classification_type": "U",
        "meta_norad_cat_id": 66596,
        "meta_element_set_no": 999,
        "meta_rev_at_epoch": 553,
        "meta_bstar": 0.00073699,
        "meta_mean_motion_dot": 0.00030623,
        "meta_mean_motion_ddot": 0,
        "tle_line1": "1 66596U 25270J   25353.73456178  .00030623  00000+0  73699-3 0  9997",
        "tle_line2": "2 66596  42.9991 152.4119 0001838 270.0462  90.0184 15.40716596  5531"
      },
      "geometry": {
        "type": "Point",
        "coordinates": [
          -115.07949539538282,
          42.918370833544635
        ]
      }
    }
  ]
}